{
  "type": "FeatureCollection",
  "features": [
    {
      "type": "Feature",
      "properties": {
        "norad_id": 39617,
        "name": "ASTRA 5B (EGNOS/PRN 123)",
        "group": "gnss",
        "lat": -0.010042525387424544,
        "lon": 29.427236232712783,
        "alt_km": 35797.11293559414,
        "timestamp": "2025-12-02T19:35:50.798758+00:00",
        "meta_object_name": "ASTRA 5B (EGNOS/PRN 123)",
        "meta_object_id": "2014-011B",
        "meta_epoch": "2025-12-02T07:02:48.748992",
        "meta_mean_motion": 1.0027336,
        "meta_eccentricity": 0.000477,
        "meta_inclination": 0.0835,
        "meta_ra_of_asc_node": 54.9378,
        "meta_arg_of_pericenter": 209.7898,
        "meta_mean_anomaly": 295.9047,
        "meta_ephemeris_type": 0,
        "meta_classification_type": "U",
        "meta_norad_cat_id": 39617,
        "meta_element_set_no": 999,
        "meta_rev_at_epoch": 4269,
        "meta_bstar": 0,
        "meta_mean_motion_dot": 1.58e-06,
        "meta_mean_motion_ddot": 0,
        "tle_line1": "1 39617U 14011B   25336.29361978  .00000158  00000+0  00000+0 0  9999",
        "tle_line2": "2 39617   0.0835  54.9378 0004770 209.7898 295.9047  1.00273360 42690"
      },
      "geometry": {
        "type": "Point",
        "coordinates": [
          29.427236232712783,
          -0.010042525387424544
        ]
      }
    },
    {
      "type": "Feature",
      "properties": {
        "norad_id": 39620,
        "name": "COSMOS 2492 (754)",
        "group": "gnss",
        "lat": 61.59130745330699,
        "lon": 18.447754353832,
        "alt_km": 19143.572123721595,
        "timestamp": "2025-12-02T19:35:50.798770+00:00",
        "meta_object_name": "COSMOS 2492 (754)",
        "meta_object_id": "2014-012A",
        "meta_epoch": "2025-12-02T05:58:46.596288",
        "meta_mean_motion": 2.1310308,
        "meta_eccentricity": 0.0014162,
        "meta_inclination": 65.4137,
        "meta_ra_of_asc_node": 320.6266,
        "meta_arg_of_pericenter": 310.9427,
        "meta_mean_anomaly": 48.9426,
        "meta_ephemeris_type": 0,
        "meta_classification_type": "U",
        "meta_norad_cat_id": 39620,
        "meta_element_set_no": 999,
        "meta_rev_at_epoch": 9104,
        "meta_bstar": 0,
        "meta_mean_motion_dot": -3.3e-07,
        "meta_mean_motion_ddot": 0,
        "tle_line1": "1 39620U 14012A   25336.24915042 -.00000033  00000+0  00000+0 0  9999",
        "tle_line2": "2 39620  65.4137 320.6266 0014162 310.9427  48.9426  2.13103080 91048"
      },
      "geometry": {
        "type": "Point",
        "coordinates": [
          18.447754353832,
          61.59130745330699
        ]
      }
    },
    {
      "type": "Feature",
      "properties": {
        "norad_id": 39635,
        "name": "IRNSS-1B",
        "group": "gnss",
        "lat": 1.4267523136012863,
        "lon": 61.191250814405926,
        "alt_km": 35710.75009625312,
        "timestamp": "2025-12-02T19:35:50.798781+00:00",
        "meta_object_name": "IRNSS-1B",
        "meta_object_id": "2014-017A",
        "meta_epoch": "2025-11-28T20:06:06.175008",
        "meta_mean_motion": 1.00274122,
        "meta_eccentricity": 0.00176916,
        "meta_inclination": 28.849,
        "meta_ra_of_asc_node": 243.8302,
        "meta_arg_of_pericenter": 183.8746,
        "meta_mean_anomaly": 356.8041,
        "meta_ephemeris_type": 0,
        "meta_classification_type": "U",
        "meta_norad_cat_id": 39635,
        "meta_element_set_no": 999,
        "meta_rev_at_epoch": 4278,
        "meta_bstar": 0,
        "meta_mean_motion_dot": 1.13e-06,
        "meta_mean_motion_ddot": 0,
        "tle_line1": "1 39635U 14017A   25332.83757147  .00000113  00000+0  00000+0 0  9999",
        "tle_line2": "2 39635  28.8490 243.8302 0017691 183.8746 356.8041  1.00274122 42789"
      },
      "geometry": {
        "type": "Point",
        "coordinates": [
          61.191250814405926,
          1.4267523136012863
        ]
      }
    },
    {
      "type": "Feature",
      "properties": {
        "norad_id": 39727,
        "name": "LUCH 5V (SDCM/PRN 141)",
        "group": "gnss",
        "lat": 2.2656800201757474,
        "lon": 100.5402568248995,
        "alt_km": 35804.09065732726,
        "timestamp": "2025-12-02T19:35:50.798794+00:00",
        "meta_object_name": "LUCH 5V (SDCM/PRN 141)",
        "meta_object_id": "2014-023A",
        "meta_epoch": "2025-12-02T07:23:09.301920",
        "meta_mean_motion": 1.00272305,
        "meta_eccentricity": 0.0004431,
        "meta_inclination": 4.6411,
        "meta_ra_of_asc_node": 71.6272,
        "meta_arg_of_pericenter": 197.954,
        "meta_mean_anomaly": 7.3956,
        "meta_ephemeris_type": 0,
        "meta_classification_type": "U",
        "meta_norad_cat_id": 39727,
        "meta_element_set_no": 999,
        "meta_rev_at_epoch": 4238,
        "meta_bstar": 0,
        "meta_mean_motion_dot": -2.5e-06,
        "meta_mean_motion_ddot": 0,
        "tle_line1": "1 39727U 14023A   25336.30774655 -.00000250  00000+0  00000+0 0  9990",
        "tle_line2": "2 39727   4.6411  71.6272 0004431 197.9540   7.3956  1.00272305 42385"
      },
      "geometry": {
        "type": "Point",
        "coordinates": [
          100.5402568248995,
          2.2656800201757474
        ]
      }
    },
    {
      "type": "Feature",
      "properties": {
        "norad_id": 39741,
        "name": "GPS BIIF-6  (PRN 06)",
        "group": "gnss",
        "lat": -26.191878320810144,
        "lon": 178.11349708677199,
        "alt_km": 20214.053220473346,
        "timestamp": "2025-12-02T19:35:50.798805+00:00",
        "meta_object_name": "GPS BIIF-6  (PRN 06)",
        "meta_object_id": "2014-026A",
        "meta_epoch": "2025-12-02T00:33:52.471872",
        "meta_mean_motion": 2.00561967,
        "meta_eccentricity": 0.0038874,
        "meta_inclination": 56.5877,
        "meta_ra_of_asc_node": 339.1935,
        "meta_arg_of_pericenter": 318.1074,
        "meta_mean_anomaly": 41.6257,
        "meta_ephemeris_type": 0,
        "meta_classification_type": "U",
        "meta_norad_cat_id": 39741,
        "meta_element_set_no": 999,
        "meta_rev_at_epoch": 8458,
        "meta_bstar": 0,
        "meta_mean_motion_dot": -5.7e-07,
        "meta_mean_motion_ddot": 0,
        "tle_line1": "1 39741U 14026A   25336.02352398 -.00000057  00000+0  00000+0 0  9999",
        "tle_line2": "2 39741  56.5877 339.1935 0038874 318.1074  41.6257  2.00561967 84587"
      },
      "geometry": {
        "type": "Point",
        "coordinates": [
          178.11349708677199,
          -26.191878320810144
        ]
      }
    },
    {
      "type": "Feature",
      "properties": {
        "norad_id": 40001,
        "name": "COSMOS 2500 (755)",
        "group": "gnss",
        "lat": -49.54782614883486,
        "lon": -72.23031738875014,
        "alt_km": 19133.110514201006,
        "timestamp": "2025-12-02T19:35:50.798817+00:00",
        "meta_object_name": "COSMOS 2500 (755)",
        "meta_object_id": "2014-032A",
        "meta_epoch": "2025-12-01T22:51:13.641408",
        "meta_mean_motion": 2.13105853,
        "meta_eccentricity": 0.00082978,
        "meta_inclination": 65.3495,
        "meta_ra_of_asc_node": 320.3998,
        "meta_arg_of_pericenter": 219.081,
        "meta_mean_anomaly": 140.8682,
        "meta_ephemeris_type": 0,
        "meta_classification_type": "U",
        "meta_norad_cat_id": 40001,
        "meta_element_set_no": 999,
        "meta_rev_at_epoch": 8925,
        "meta_bstar": 0,
        "meta_mean_motion_dot": -3.1e-07,
        "meta_mean_motion_ddot": 0,
        "tle_line1": "1 40001U 14032A   25335.95224122 -.00000031  00000+0  00000+0 0  9993",
        "tle_line2": "2 40001  65.3495 320.3998 0008297 219.0810 140.8682  2.13105853 89251"
      },
      "geometry": {
        "type": "Point",
        "coordinates": [
          -72.23031738875014,
          -49.54782614883486
        ]
      }
    },
    {
      "type": "Feature",
      "properties": {
        "norad_id": 40105,
        "name": "GPS BIIF-7  (PRN 09)",
        "group": "gnss",
        "lat": 24.60319450887549,
        "lon": -102.25815842150168,
        "alt_km": 20102.540583483482,
        "timestamp": "2025-12-02T19:35:50.798828+00:00",
        "meta_object_name": "GPS BIIF-7  (PRN 09)",
        "meta_object_id": "2014-045A",
        "meta_epoch": "2025-12-01T02:44:59.048448",
        "meta_mean_motion": 2.00571745,
        "meta_eccentricity": 0.00329481,
        "meta_inclination": 55.2216,
        "meta_ra_of_asc_node": 96.3629,
        "meta_arg_of_pericenter": 119.5842,
        "meta_mean_anomaly": 240.7262,
        "meta_ephemeris_type": 0,
        "meta_classification_type": "U",
        "meta_norad_cat_id": 40105,
        "meta_element_set_no": 999,
        "meta_rev_at_epoch": 8210,
        "meta_bstar": 0,
        "meta_mean_motion_dot": 1.8e-07,
        "meta_mean_motion_ddot": 0,
        "tle_line1": "1 40105U 14045A   25335.11457232  .00000018  00000+0  00000+0 0  9994",
        "tle_line2": "2 40105  55.2216  96.3629 0032948 119.5842 240.7262  2.00571745 82109"
      },
      "geometry": {
        "type": "Point",
        "coordinates": [
          -102.25815842150168,
          24.60319450887549
        ]
      }
    }
  ]
}